1 43477U 18047B   22298.79966211  .00001779  00000-0  70103-4 0  9998
2 43477  88.9957  20.8513 0013621 204.0214 156.0400 15.24939347246272
1 43477U 18047B   22299.06215135  .00001772  00000-0  69806-4 0  9992
2 43477  88.9957  20.8159 0013661 202.9251 157.1389 15.24940285246316
1 43477U 18047B   22299.06215135  .00001772  00000-0  69806-4 0  9992
2 43477  88.9957  20.8159 0013661 202.9251 157.1389 15.24940285246316
1 43477U 18047B   22300.17794495  .00000345  00000-0  12694-4 0  9996
2 43477  88.9951  20.6654 0013605 197.2889 162.7897 15.24625518246482
1 43477U 18047B   22300.50612393  .00000099  00000-0  27362-5 0  9994
2 43477  88.9951  20.6214 0013683 195.9705 164.1113 15.24625618246536
1 43477U 18047B   22300.63739555  .00000100  00000-0  27465-5 0  9995
2 43477  88.9951  20.6037 0013712 195.4146 164.6686 15.24625720246552
1 43477U 18047B   22301.49065870  .00002277  00000-0  90905-4 0  9997
2 43477  88.9950  20.4890 0013800 191.7701 168.3227 15.24632607246688
1 43477U 18047B   22301.55629424  .00002265  00000-0  90413-4 0  9996
2 43477  88.9950  20.4802 0013814 191.5123 168.5812 15.24632858246693
1 43477U 18047B   22301.81883617  .00002489  00000-0  99464-4 0  9994
2 43477  88.9949  20.4448 0013872 190.4848 169.6112 15.24634411246730
1 43477U 18047B   22302.34391900  .00002821  00000-0  11291-3 0  9993
2 43477  88.9948  20.3741 0013979 188.4048 171.6968 15.24638043246817
1 43477U 18047B   22302.80336548  .00003100  00000-0  12418-3 0  9994
2 43477  88.9947  20.3122 0014073 186.5642 173.5424 15.24641496246885
1 43477U 18047B   22302.80336548  .00003100  00000-0  12418-3 0  9994
2 43477  88.9947  20.3122 0014073 186.5642 173.5424 15.24641496246885
1 43477U 18047B   22303.52535176  .00002973  00000-0  11902-3 0  9996
2 43477  88.9947  20.2149 0014212 183.7448 176.3696 15.24645130246994
1 43477U 18047B   22303.85352642  .00002986  00000-0  11953-3 0  9997
2 43477  88.9946  20.1707 0014280 182.4398 177.6783 15.24647304247040
1 43477U 18047B   22304.50987494  .00003042  00000-0  12175-3 0  9990
2 43477  88.9946  20.0822 0014405 179.9059 180.2194 15.24651080247144
1 43477U 18047B   22304.77241375  .00003061  00000-0  12250-3 0  9995
2 43477  88.9946  20.0468 0014459 178.9060 181.2223 15.24652714247183
1 43477U 18047B   22304.83804843  .00003021  00000-0  12090-3 0  9995
2 43477  88.9946  20.0380 0014473 178.6549 181.4740 15.24653044247195
1 43477U 18047B   22305.49439414  .00003180  00000-0  12731-3 0  9994
2 43477  88.9947  19.9496 0014575 176.1687 183.9675 15.24657362247292
1 43477U 18047B   22305.82256645  .00002932  00000-0  11728-3 0  9993
2 43477  88.9946  19.9054 0014636 174.9718 185.1679 15.24658735247349
1 43477U 18047B   22305.88820086  .00002947  00000-0  11786-3 0  9995
2 43477  88.9946  19.8966 0014648 174.7241 185.4164 15.24659121247355
1 43477U 18047B   22306.54454396  .00002974  00000-0  11896-3 0  9998
2 43477  88.9947  19.8081 0014753 172.2587 187.8892 15.24663140247458
1 43477U 18047B   22306.80708059  .00003091  00000-0  12367-3 0  9990
2 43477  88.9947  19.7727 0014801 171.2892 188.8616 15.24664914247495
1 43477U 18047B   22307.13525112  .00003095  00000-0  12380-3 0  9993
2 43477  88.9947  19.7286 0014869 170.0802 190.0743 15.24666989247543
1 43477U 18047B   22307.52905503  .00003124  00000-0  12496-3 0  9993
2 43477  88.9949  19.6755 0014938 168.6589 191.4998 15.24669630247607
1 43477U 18047B   22307.85722405  .00003371  00000-0  13494-3 0  9990
2 43477  88.9949  19.6312 0015022 167.3655 192.7972 15.24672787247659
1 43477U 18047B   22308.18539275  .00003515  00000-0  14073-3 0  9992
2 43477  88.9950  19.5871 0015105 166.1785 193.9880 15.24675562247704
1 43477U 18047B   22308.51356111  .00003420  00000-0  13688-3 0  9991
2 43477  88.9951  19.5430 0015166 164.9907 195.1794 15.24677501247753
1 43477U 18047B   22308.84172891  .00003380  00000-0  13525-3 0  9993
2 43477  88.9951  19.4988 0015226 163.7750 196.3989 15.24679800247809
1 43477U 18047B   22309.49806352  .00003229  00000-0  12912-3 0  9992
2 43477  88.9950  19.4105 0015332 161.4313 198.7497 15.24683436247908
1 43477U 18047B   22309.49806352  .00003229  00000-0  12912-3 0  9992
2 43477  88.9950  19.4105 0015332 161.4313 198.7497 15.24683436247908
1 43477U 18047B   22309.89186322  .00003168  00000-0  12665-3 0  9991
2 43477  88.9950  19.3575 0015401 159.9955 200.1900 15.24685866247961
1 43477U 18047B   22310.48256196  .00002956  00000-0  11807-3 0  9996
2 43477  88.9950  19.2780 0015500 157.8889 202.3031 15.24688749248054
1 43477U 18047B   22310.81072718  .00002876  00000-0  11485-3 0  9992
2 43477  88.9949  19.2338 0015556 156.7240 203.4716 15.24690685248101
1 43477U 18047B   22311.86085283  .00003160  00000-0  12626-3 0  9994
2 43477  88.9946  19.0925 0015741 153.0760 207.1308 15.24698076248268
1 43477U 18047B   22312.12338364  .00003393  00000-0  13564-3 0  9995
2 43477  88.9947  19.0572 0015812 152.1469 208.0629 15.24700122248309
1 43477U 18047B   22312.45154623  .00002876  00000-0  11479-3 0  9993
2 43477  88.9946  19.0131 0015868 151.0097 209.2036 15.24701261248350
1 43477U 18047B   22312.91097297  .00003170  00000-0  12665-3 0  9993
2 43477  88.9944  18.9512 0015950 149.3996 210.8186 15.24705600248422
1 43477U 18047B   22313.43603088  .00003091  00000-0  12344-3 0  9998
2 43477  88.9943  18.8805 0016027 147.5714 212.6522 15.24709539248507
1 43477U 18047B   22313.56729518  .00003235  00000-0  12923-3 0  9992
2 43477  88.9943  18.8628 0016049 147.1236 213.1014 15.24710815248522
1 43477U 18047B   22313.89545603  .00003140  00000-0  12538-3 0  9996
2 43477  88.9941  18.8184 0016093 145.9967 214.2316 15.24712093248575
1 43477U 18047B   22314.48614450  .00002742  00000-0  10933-3 0  9993
2 43477  88.9940  18.7388 0016189 143.9666 216.2677 15.24714814248664
1 43477U 18047B   22314.74867222  .00002622  00000-0  10449-3 0  9998
2 43477  88.9939  18.7034 0016233 143.0658 217.1711 15.24716237248707
1 43477U 18047B   22314.81430418  .00002599  00000-0  10356-3 0  9999
2 43477  88.9939  18.6945 0016242 142.8286 217.4090 15.24716501248719
1 43477U 18047B   22315.53625412  .00002579  00000-0  10273-3 0  9995
2 43477  88.9937  18.5972 0016353 140.3674 219.8772 15.24720306248826
1 43477U 18047B   22315.86441260  .00002513  00000-0  10006-3 0  9990
2 43477  88.9936  18.5529 0016393 139.2462 221.0016 15.24721942248877
1 43477U 18047B   22316.12693913  .00002530  00000-0  10074-3 0  9998
2 43477  88.9935  18.5175 0016430 138.3689 221.8813 15.24723322248918
1 43477U 18047B   22316.58636000  .00002505  00000-0  99693-4 0  9999
2 43477  88.9934  18.4555 0016492 136.8242 223.4302 15.24725599248980
1 43477U 18047B   22316.84888599  .00002229  00000-0  88577-4 0  9992
2 43477  88.9933  18.4201 0016526 135.9395 224.3173 15.24726057249026
1 43477U 18047B   22317.17704314  .00002216  00000-0  88044-4 0  9996
2 43477  88.9932  18.3758 0016570 134.8592 225.4005 15.24727585249075
1 43477U 18047B   22317.50519981  .00002322  00000-0  92337-4 0  9995
2 43477  88.9932  18.3315 0016616 133.7746 226.4880 15.24729663249121
1 43477U 18047B   22317.83335626  .00002178  00000-0  86503-4 0  9990
2 43477  88.9931  18.2872 0016664 132.6955 227.5699 15.24730885249173
1 43477U 18047B   22318.29277479  .00002193  00000-0  87106-4 0  9999
2 43477  88.9931  18.2252 0016723 131.1879 229.0814 15.24732986249248
1 43477U 18047B   22318.48966820  .00002151  00000-0  85395-4 0  9997
2 43477  88.9932  18.1987 0016750 130.5401 229.7309 15.24733891249272
1 43477U 18047B   22318.81782370  .00001829  00000-0  72435-4 0  9992
2 43477  88.9931  18.1544 0016801 129.4576 230.8162 15.24734583249322
1 43477U 18047B   22319.47413379  .00001874  00000-0  74236-4 0  9996
2 43477  88.9932  18.0658 0016884 127.3010 232.9780 15.24737614249427
1 43477U 18047B   22319.53976496  .00002018  00000-0  80022-4 0  9998
2 43477  88.9932  18.0569 0016891 127.0809 233.1986 15.24738200249433
1 43477U 18047B   22319.86791959  .00001692  00000-0  66901-4 0  9990
2 43477  88.9932  18.0127 0016932 125.9763 234.3058 15.24738677249481
1 43477U 18047B   22320.58985946  .00001932  00000-0  76549-4 0  9998
2 43477  88.9931  17.9154 0016903 123.5258 236.7608 15.24741192249594
1 43477U 18047B   22320.78675182  .00001915  00000-0  75879-4 0  9994
2 43477  88.9931  17.8888 0016925 122.8628 237.4252 15.24741891249627
1 43477U 18047B   22321.57432011  .00001882  00000-0  74521-4 0  9990
2 43477  88.9930  17.7826 0017012 120.3018 239.9915 15.24745030249746
1 43477U 18047B   22321.83684262  .00001678  00000-0  66317-4 0  9993
2 43477  88.9930  17.7472 0017044 119.4461 240.8490 15.24745055249789
1 43477U 18047B   22322.09936497  .00001642  00000-0  64857-4 0  9990
2 43477  88.9929  17.7118 0017072 118.6036 241.6932 15.24745913249822
1 43477U 18047B   22322.49314812  .00001808  00000-0  71520-4 0  9994
2 43477  88.9929  17.6586 0017107 117.3106 242.9886 15.24748290249882
1 43477U 18047B   22322.82130039  .00001696  00000-0  67041-4 0  9996
2 43477  88.9929  17.6143 0017138 116.2335 244.0677 15.24748961249939
1 43477U 18047B   22323.41197394  .00001876  00000-0  74273-4 0  9994
2 43477  88.9928  17.5346 0017187 114.3047 245.9998 15.24752045250021
1 43477U 18047B   22323.41197394  .00001876  00000-0  74273-4 0  9994
2 43477  88.9928  17.5346 0017187 114.3047 245.9998 15.24752045250021
1 43477U 18047B   22323.87138665  .00001574  00000-0  62102-4 0  9993
2 43477  88.9927  17.4726 0017224 112.8187 247.4883 15.24751884250098
1 43477U 18047B   22324.46205897  .00001790  00000-0  70802-4 0  9997
2 43477  88.9926  17.3929 0017263 110.8905 249.4193 15.24755033250186
1 43477U 18047B   22324.52768925  .00001724  00000-0  68146-4 0  9995
2 43477  88.9926  17.3840 0017269 110.6995 249.6106 15.24754887250194
1 43477U 18047B   22324.85584008  .00001595  00000-0  62938-4 0  9998
2 43477  88.9925  17.3397 0017292 109.6442 250.6674 15.24755342250246
1 43477U 18047B   22325.57777104  .00001738  00000-0  68703-4 0  9994
2 43477  88.9924  17.2423 0017334 107.3171 252.9975 15.24758558250358
